{
  "type": "FeatureCollection",
  "features": [
    {
      "type": "Feature",
      "properties": {
        "norad_id": 39160,
        "name": "VNREDSAT 1",
        "group": "resource",
        "lat": 80.942965389557,
        "lon": -85.09887172442673,
        "alt_km": 669.0157545802949,
        "timestamp": "2025-12-04T05:42:43.034863+00:00",
        "meta_object_name": "VNREDSAT 1",
        "meta_object_id": "2013-021B",
        "meta_epoch": "2025-12-03T22:43:32.331936",
        "meta_mean_motion": 14.64901913,
        "meta_eccentricity": 0.00013654,
        "meta_inclination": 97.9386,
        "meta_ra_of_asc_node": 33.5296,
        "meta_arg_of_pericenter": 83.9184,
        "meta_mean_anomaly": 276.2175,
        "meta_ephemeris_type": 0,
        "meta_classification_type": "U",
        "meta_norad_cat_id": 39160,
        "meta_element_set_no": 999,
        "meta_rev_at_epoch": 67170,
        "meta_bstar": 0.00025303535,
        "meta_mean_motion_dot": 1.307e-05,
        "meta_mean_motion_ddot": 0,
        "tle_line1": "1 39160U 13021B   25337.94690199  .00001307  00000+0  25304-3 0  9990",
        "tle_line2": "2 39160  97.9386  33.5296 0001365  83.9184 276.2175 14.64901913671708"
      },
      "geometry": {
        "type": "Point",
        "coordinates": [
          -85.09887172442673,
          80.942965389557
        ]
      }
    },
    {
      "type": "Feature",
      "properties": {
        "norad_id": 39227,
        "name": "ARIRANG-5 (KOMPSAT-5)",
        "group": "resource",
        "lat": 42.26820263158457,
        "lon": 155.67833954652644,
        "alt_km": 547.2610044675985,
        "timestamp": "2025-12-04T05:42:43.034876+00:00",
        "meta_object_name": "ARIRANG-5 (KOMPSAT-5)",
        "meta_object_id": "2013-042A",
        "meta_epoch": "2025-12-03T23:08:16.452384",
        "meta_mean_motion": 15.04506868,
        "meta_eccentricity": 0.00042413,
        "meta_inclination": 97.6155,
        "meta_ra_of_asc_node": 162.3934,
        "meta_arg_of_pericenter": 80.6977,
        "meta_mean_anomaly": 279.4728,
        "meta_ephemeris_type": 0,
        "meta_classification_type": "U",
        "meta_norad_cat_id": 39227,
        "meta_element_set_no": 999,
        "meta_rev_at_epoch": 67450,
        "meta_bstar": 0.00022159433,
        "meta_mean_motion_dot": 3.043e-05,
        "meta_mean_motion_ddot": 0,
        "tle_line1": "1 39227U 13042A   25337.96407931  .00003043  00000+0  22159-3 0  9993",
        "tle_line2": "2 39227  97.6155 162.3934 0004241  80.6977 279.4728 15.04506868674508"
      },
      "geometry": {
        "type": "Point",
        "coordinates": [
          155.67833954652644,
          42.26820263158457
        ]
      }
    },
    {
      "type": "Feature",
      "properties": {
        "norad_id": 39418,
        "name": "SKYSAT-A",
        "group": "resource",
        "lat": -20.421767459116207,
        "lon": -154.07301682038943,
        "alt_km": 531.5299610276697,
        "timestamp": "2025-12-04T05:42:43.034887+00:00",
        "meta_object_name": "SKYSAT-A",
        "meta_object_id": "2013-066C",
        "meta_epoch": "2025-12-03T17:42:13.855104",
        "meta_mean_motion": 15.11496144,
        "meta_eccentricity": 0.00204192,
        "meta_inclination": 97.4125,
        "meta_ra_of_asc_node": 28.2202,
        "meta_arg_of_pericenter": 269.8532,
        "meta_mean_anomaly": 90.0359,
        "meta_ephemeris_type": 0,
        "meta_classification_type": "U",
        "meta_norad_cat_id": 39418,
        "meta_element_set_no": 999,
        "meta_rev_at_epoch": 65894,
        "meta_bstar": 0.00032597224,
        "meta_mean_motion_dot": 5.483e-05,
        "meta_mean_motion_ddot": 0,
        "tle_line1": "1 39418U 13066C   25337.73766036  .00005483  00000+0  32597-3 0  9997",
        "tle_line2": "2 39418  97.4125  28.2202 0020419 269.8532  90.0359 15.11496144658946"
      },
      "geometry": {
        "type": "Point",
        "coordinates": [
          -154.07301682038943,
          -20.421767459116207
        ]
      }
    },
    {
      "type": "Feature",
      "properties": {
        "norad_id": 39419,
        "name": "DUBAISAT-2",
        "group": "resource",
        "lat": 79.47955521047751,
        "lon": -75.843250314044,
        "alt_km": 534.214379740898,
        "timestamp": "2025-12-04T05:42:43.034897+00:00",
        "meta_object_name": "DUBAISAT-2",
        "meta_object_id": "2013-066D",
        "meta_epoch": "2025-12-03T22:58:43.305024",
        "meta_mean_motion": 15.08219525,
        "meta_eccentricity": 0.00114059,
        "meta_inclination": 97.4439,
        "meta_ra_of_asc_node": 328.6373,
        "meta_arg_of_pericenter": 353.8956,
        "meta_mean_anomaly": 6.2132,
        "meta_ephemeris_type": 0,
        "meta_classification_type": "U",
        "meta_norad_cat_id": 39419,
        "meta_element_set_no": 999,
        "meta_rev_at_epoch": 65694,
        "meta_bstar": 0.00048340484,
        "meta_mean_motion_dot": 7.433e-05,
        "meta_mean_motion_ddot": 0,
        "tle_line1": "1 39419U 13066D   25337.95744566  .00007433  00000+0  48340-3 0  9996",
        "tle_line2": "2 39419  97.4439 328.6373 0011405 353.8956   6.2132 15.08219525656948"
      },
      "geometry": {
        "type": "Point",
        "coordinates": [
          -75.843250314044,
          79.47955521047751
        ]
      }
    },
    {
      "type": "Feature",
      "properties": {
        "norad_id": 39574,
        "name": "GPM-CORE",
        "group": "resource",
        "lat": 31.31919189848,
        "lon": 44.659677623088314,
        "alt_km": 432.049207312979,
        "timestamp": "2025-12-04T05:42:43.034907+00:00",
        "meta_object_name": "GPM-CORE",
        "meta_object_id": "2014-009C",
        "meta_epoch": "2025-12-03T22:52:22.994688",
        "meta_mean_motion": 15.45201391,
        "meta_eccentricity": 0.00105449,
        "meta_inclination": 64.9754,
        "meta_ra_of_asc_node": 242.1286,
        "meta_arg_of_pericenter": 268.8616,
        "meta_mean_anomaly": 91.1317,
        "meta_ephemeris_type": 0,
        "meta_classification_type": "U",
        "meta_norad_cat_id": 39574,
        "meta_element_set_no": 999,
        "meta_rev_at_epoch": 66765,
        "meta_bstar": 0.00054190855,
        "meta_mean_motion_dot": 0.00025766,
        "meta_mean_motion_ddot": 0,
        "tle_line1": "1 39574U 14009C   25337.95304392  .00025766  00000+0  54191-3 0  9995",
        "tle_line2": "2 39574  64.9754 242.1286 0010544 268.8616  91.1317 15.45201391667654"
      },
      "geometry": {
        "type": "Point",
        "coordinates": [
          44.659677623088314,
          31.31919189848
        ]
      }
    },
    {
      "type": "Feature",
      "properties": {
        "norad_id": 39634,
        "name": "SENTINEL-1A",
        "group": "resource",
        "lat": 49.453748652279536,
        "lon": 173.28526404949827,
        "alt_km": 690.602113733652,
        "timestamp": "2025-12-04T05:42:43.034917+00:00",
        "meta_object_name": "SENTINEL-1A",
        "meta_object_id": "2014-016A",
        "meta_epoch": "2025-12-04T00:10:55.896960",
        "meta_mean_motion": 14.59201554,
        "meta_eccentricity": 0.00012452,
        "meta_inclination": 98.1805,
        "meta_ra_of_asc_node": 343.3779,
        "meta_arg_of_pericenter": 88.6351,
        "meta_mean_anomaly": 271.4991,
        "meta_ephemeris_type": 0,
        "meta_classification_type": "U",
        "meta_norad_cat_id": 39634,
        "meta_element_set_no": 999,
        "meta_rev_at_epoch": 62155,
        "meta_bstar": 5.6408637e-05,
        "meta_mean_motion_dot": 2.2e-06,
        "meta_mean_motion_ddot": 0,
        "tle_line1": "1 39634U 14016A   25338.00759140  .00000220  00000+0  56409-4 0  9995",
        "tle_line2": "2 39634  98.1805 343.3779 0001245  88.6351 271.4991 14.59201554621555"
      },
      "geometry": {
        "type": "Point",
        "coordinates": [
          173.28526404949827,
          49.453748652279536
        ]
      }
    },
    {
      "type": "Feature",
      "properties": {
        "norad_id": 39731,
        "name": "KAZEOSAT 1",
        "group": "resource",
        "lat": -81.43617125613113,
        "lon": 153.26696211998754,
        "alt_km": 759.8051894870205,
        "timestamp": "2025-12-04T05:42:43.034927+00:00",
        "meta_object_name": "KAZEOSAT 1",
        "meta_object_id": "2014-024A",
        "meta_epoch": "2025-12-03T23:28:36.111072",
        "meta_mean_motion": 14.42054206,
        "meta_eccentricity": 0.00010611,
        "meta_inclination": 98.3444,
        "meta_ra_of_asc_node": 50.0819,
        "meta_arg_of_pericenter": 99.2308,
        "meta_mean_anomaly": 260.9001,
        "meta_ephemeris_type": 0,
        "meta_classification_type": "U",
        "meta_norad_cat_id": 39731,
        "meta_element_set_no": 999,
        "meta_rev_at_epoch": 61042,
        "meta_bstar": 0.00014048046,
        "meta_mean_motion_dot": 4.18e-06,
        "meta_mean_motion_ddot": 0,
        "tle_line1": "1 39731U 14024A   25337.97819573  .00000418  00000+0  14048-3 0  9995",
        "tle_line2": "2 39731  98.3444  50.0819 0001061  99.2308 260.9001 14.42054206610428"
      },
      "geometry": {
        "type": "Point",
        "coordinates": [
          153.26696211998754,
          -81.43617125613113
        ]
      }
    }
  ]
}